{
  "type": "FeatureCollection",
  "features": [
    {
      "type": "Feature",
      "properties": {
        "norad_id": 66910,
        "name": "1998-067XW",
        "group": "last-30-days",
        "lat": -32.81688636556409,
        "lon": -21.436816070903767,
        "alt_km": 411.0951693535035,
        "timestamp": "2025-12-15T15:53:18.663181+00:00",
        "meta_object_name": "1998-067XW",
        "meta_object_id": "1998-067XW",
        "meta_epoch": "2025-12-14T23:28:33.119904",
        "meta_mean_motion": 15.52053849,
        "meta_eccentricity": 0.00048717,
        "meta_inclination": 51.6296,
        "meta_ra_of_asc_node": 131.2373,
        "meta_arg_of_pericenter": 219.7417,
        "meta_mean_anomaly": 140.3216,
        "meta_ephemeris_type": 0,
        "meta_classification_type": "U",
        "meta_norad_cat_id": 66910,
        "meta_element_set_no": 999,
        "meta_rev_at_epoch": 196,
        "meta_bstar": 0.00071781086,
        "meta_mean_motion_dot": 0.0004387,
        "meta_mean_motion_ddot": 0,
        "tle_line1": "1 66910U 98067XW  25348.97816111  .00043870  00000+0  71781-3 0  9996",
        "tle_line2": "2 66910  51.6296 131.2373 0004871 219.7417 140.3216 15.52053849  1969"
      },
      "geometry": {
        "type": "Point",
        "coordinates": [
          -21.436816070903767,
          -32.81688636556409
        ]
      }
    },
    {
      "type": "Feature",
      "properties": {
        "norad_id": 66911,
        "name": "1998-067XX",
        "group": "last-30-days",
        "lat": -37.42600900248931,
        "lon": -14.853343353023789,
        "alt_km": 410.5651786537064,
        "timestamp": "2025-12-15T15:53:18.663190+00:00",
        "meta_object_name": "1998-067XX",
        "meta_object_id": "1998-067XX",
        "meta_epoch": "2025-12-14T18:48:49.806720",
        "meta_mean_motion": 15.52344469,
        "meta_eccentricity": 0.00045838,
        "meta_inclination": 51.6294,
        "meta_ra_of_asc_node": 132.1898,
        "meta_arg_of_pericenter": 221.2762,
        "meta_mean_anomaly": 138.7882,
        "meta_ephemeris_type": 0,
        "meta_classification_type": "U",
        "meta_norad_cat_id": 66911,
        "meta_element_set_no": 999,
        "meta_rev_at_epoch": 192,
        "meta_bstar": 0.0010081663,
        "meta_mean_motion_dot": 0.00062604,
        "meta_mean_motion_ddot": 0,
        "tle_line1": "1 66911U 98067XX  25348.78390980  .00062604  00000+0  10082-2 0  9999",
        "tle_line2": "2 66911  51.6294 132.1898 0004583 221.2762 138.7882 15.52344469  1928"
      },
      "geometry": {
        "type": "Point",
        "coordinates": [
          -14.853343353023789,
          -37.42600900248931
        ]
      }
    },
    {
      "type": "Feature",
      "properties": {
        "norad_id": 66912,
        "name": "1998-067XY",
        "group": "last-30-days",
        "lat": -14.946800049118211,
        "lon": -39.90247442491345,
        "alt_km": 412.6783336459248,
        "timestamp": "2025-12-15T15:53:18.663202+00:00",
        "meta_object_name": "1998-067XY",
        "meta_object_id": "1998-067XY",
        "meta_epoch": "2025-12-14T18:56:09.789216",
        "meta_mean_motion": 15.51365838,
        "meta_eccentricity": 0.00043478,
        "meta_inclination": 51.6301,
        "meta_ra_of_asc_node": 132.2238,
        "meta_arg_of_pericenter": 234.7392,
        "meta_mean_anomaly": 125.3191,
        "meta_ephemeris_type": 0,
        "meta_classification_type": "U",
        "meta_norad_cat_id": 66912,
        "meta_element_set_no": 999,
        "meta_rev_at_epoch": 192,
        "meta_bstar": 0.00071977927,
        "meta_mean_motion_dot": 0.00042904,
        "meta_mean_motion_ddot": 0,
        "tle_line1": "1 66912U 98067XY  25348.78900219  .00042904  00000+0  71978-3 0  9995",
        "tle_line2": "2 66912  51.6301 132.2238 0004347 234.7392 125.3191 15.51365838  1920"
      },
      "geometry": {
        "type": "Point",
        "coordinates": [
          -39.90247442491345,
          -14.946800049118211
        ]
      }
    },
    {
      "type": "Feature",
      "properties": {
        "norad_id": 66913,
        "name": "2025-284A",
        "group": "last-30-days",
        "lat": -10.771051826294203,
        "lon": -52.095269156622095,
        "alt_km": 504.85480493776504,
        "timestamp": "2025-12-15T15:53:18.663211+00:00",
        "meta_object_name": "2025-284A",
        "meta_object_id": "2025-284A",
        "meta_epoch": "2025-12-14T21:39:39.043008",
        "meta_mean_motion": 15.1901136,
        "meta_eccentricity": 0.00119986,
        "meta_inclination": 80.4039,
        "meta_ra_of_asc_node": 127.0231,
        "meta_arg_of_pericenter": 197.3946,
        "meta_mean_anomaly": 162.6873,
        "meta_ephemeris_type": 0,
        "meta_classification_type": "U",
        "meta_norad_cat_id": 66913,
        "meta_element_set_no": 999,
        "meta_rev_at_epoch": 145,
        "meta_bstar": 0.0003431935,
        "meta_mean_motion_dot": 7.216e-05,
        "meta_mean_motion_ddot": 0,
        "tle_line1": "1 66913U 25284A   25348.90253522  .00007216  00000+0  34319-3 0  9994",
        "tle_line2": "2 66913  80.4039 127.0231 0011998 197.3946 162.6873 15.19011360  1454"
      },
      "geometry": {
        "type": "Point",
        "coordinates": [
          -52.095269156622095,
          -10.771051826294203
        ]
      }
    },
    {
      "type": "Feature",
      "properties": {
        "norad_id": 66914,
        "name": "2025-284B",
        "group": "last-30-days",
        "lat": -12.30773183169706,
        "lon": -51.82291865011643,
        "alt_km": 509.385358492661,
        "timestamp": "2025-12-15T15:53:18.663221+00:00",
        "meta_object_name": "2025-284B",
        "meta_object_id": "2025-284B",
        "meta_epoch": "2025-12-14T23:14:02.207040",
        "meta_mean_motion": 15.18963049,
        "meta_eccentricity": 0.00082672,
        "meta_inclination": 80.4047,
        "meta_ra_of_asc_node": 126.9414,
        "meta_arg_of_pericenter": 239.6896,
        "meta_mean_anomaly": 120.3514,
        "meta_ephemeris_type": 0,
        "meta_classification_type": "U",
        "meta_norad_cat_id": 66914,
        "meta_element_set_no": 999,
        "meta_rev_at_epoch": 146,
        "meta_bstar": 0.0003383275,
        "meta_mean_motion_dot": 7.097e-05,
        "meta_mean_motion_ddot": 0,
        "tle_line1": "1 66914U 25284B   25348.96808110  .00007097  00000+0  33833-3 0  9997",
        "tle_line2": "2 66914  80.4047 126.9414 0008267 239.6896 120.3514 15.18963049  1467"
      },
      "geometry": {
        "type": "Point",
        "coordinates": [
          -51.82291865011643,
          -12.30773183169706
        ]
      }
    },
    {
      "type": "Feature",
      "properties": {
        "norad_id": 66915,
        "name": "HULIANWANG DIGUI-105",
        "group": "last-30-days",
        "lat": -18.751914141861022,
        "lon": -58.07025121137358,
        "alt_km": 883.3435344592044,
        "timestamp": "2025-12-15T15:53:18.663230+00:00",
        "meta_object_name": "HULIANWANG DIGUI-105",
        "meta_object_id": "2025-285A",
        "meta_epoch": "2025-12-14T21:49:49.229184",
        "meta_mean_motion": 14.03715906,
        "meta_eccentricity": 0.0007951,
        "meta_inclination": 50.0052,
        "meta_ra_of_asc_node": 108.4362,
        "meta_arg_of_pericenter": 289.9796,
        "meta_mean_anomaly": 70.0252,
        "meta_ephemeris_type": 0,
        "meta_classification_type": "U",
        "meta_norad_cat_id": 66915,
        "meta_element_set_no": 999,
        "meta_rev_at_epoch": 121,
        "meta_bstar": 0.00012473121,
        "meta_mean_motion_dot": 4.6e-07,
        "meta_mean_motion_ddot": 0,
        "tle_line1": "1 66915U 25285A   25348.90959756  .00000046  00000+0  12473-3 0  9990",
        "tle_line2": "2 66915  50.0052 108.4362 0007951 289.9796  70.0252 14.03715906  1213"
      },
      "geometry": {
        "type": "Point",
        "coordinates": [
          -58.07025121137358,
          -18.751914141861022
        ]
      }
    },
    {
      "type": "Feature",
      "properties": {
        "norad_id": 66916,
        "name": "HULIANWANG DIGUI-106",
        "group": "last-30-days",
        "lat": -29.424196012248,
        "lon": -46.395070255736286,
        "alt_km": 881.3634403085543,
        "timestamp": "2025-12-15T15:53:18.663241+00:00",
        "meta_object_name": "HULIANWANG DIGUI-106",
        "meta_object_id": "2025-285B",
        "meta_epoch": "2025-12-14T23:28:16.711680",
        "meta_mean_motion": 14.04044141,
        "meta_eccentricity": 0.00067006,
        "meta_inclination": 50.0054,
        "meta_ra_of_asc_node": 108.1323,
        "meta_arg_of_pericenter": 284.172,
        "meta_mean_anomaly": 75.844,
        "meta_ephemeris_type": 0,
        "meta_classification_type": "U",
        "meta_norad_cat_id": 66916,
        "meta_element_set_no": 999,
        "meta_rev_at_epoch": 122,
        "meta_bstar": 1.4334174e-05,
        "meta_mean_motion_dot": -1.29e-06,
        "meta_mean_motion_ddot": 0,
        "tle_line1": "1 66916U 25285B   25348.97797120 -.00000129  00000+0  14334-4 0  9995",
        "tle_line2": "2 66916  50.0054 108.1323 0006700 284.1720  75.8440 14.04044141  1225"
      },
      "geometry": {
        "type": "Point",
        "coordinates": [
          -46.395070255736286,
          -29.424196012248
        ]
      }
    }
  ]
}